     2.100          NAVIGATION                              RINEX VERSION / TYPE
fic2rin                                 08/19/2013 00:22:26 PGM / RUN BY / DATE
                                                            END OF HEADER
 2 13  8 18  4  0  0.0  .447061378509D-03  .181898940355D-11  .000000000000D+00
     .790000000000D+02  .195625000000D+02  .524664711534D-08  .147691618646D+00
     .109896063805D-05  .125288396375D-01  .944919884205D-05  .515370734978D+04
     .144000000000D+05  .819563865662D-07 -.298922591596D+01  .227242708206D-06
     .939263473351D+00  .190156250000D+03 -.256842359718D+01 -.845928093443D-08
     .650027076237D-09  .100000000000D+01  .175400000000D+04  .000000000000D+00
     .240000000000D+01  .000000000000D+00 -.172294676304D-07  .790000000000D+02
     .720600000000D+04  .400000000000D+01
 3 13  8 18  4  0  0.0  .247522257268D-03  .511590769747D-11  .000000000000D+00
     .830000000000D+02 -.117781250000D+03  .499485091273D-08  .308531141846D+00
    -.614486634731D-05  .166423073970D-01  .815652310848D-05  .515371833420D+04
     .144000000000D+05 -.320374965668D-06  .212344128039D+01  .186264514923D-08
     .935341411924D+00  .214187500000D+03  .132073644501D+01 -.857428572485D-08
    -.174292974288D-09  .100000000000D+01  .175400000000D+04  .000000000000D+00
     .240000000000D+01  .000000000000D+00 -.465661287308D-08  .830000000000D+02
     .720600000000D+04  .400000000000D+01
 4 13  8 18  4  0  0.0  .302937347442D-03  .103455022327D-10  .000000000000D+00
     .910000000000D+02  .227812500000D+02  .510235539073D-08 -.289193283748D+01
     .873580574989D-06  .104512399994D-01  .948831439018D-05  .515359004211D+04
     .144000000000D+05  .838190317154D-07 -.297287827455D+01 -.119209289551D-06
     .938290817156D+00  .184218750000D+03  .100563597005D+01 -.809783730743D-08
     .683957060986D-09  .100000000000D+01  .175400000000D+04  .000000000000D+00
     .240000000000D+01  .000000000000D+00 -.605359673500D-08  .910000000000D+02
     .720600000000D+04  .400000000000D+01
 5 13  8 18  4  0  0.0 -.399550888687D-03 -.227373675443D-12  .000000000000D+00
     .660000000000D+02 -.100625000000D+02  .542129724736D-08  .242421748765D+01
    -.458210706711D-06  .317817833275D-02  .577792525291D-05  .515367247009D+04
     .144000000000D+05 -.113621354103D-06 -.192350262803D+01  .316649675369D-07
     .947966833824D+00  .262218750000D+03  .251713116725D+00 -.838070623291D-08
    -.138934358602D-09  .100000000000D+01  .175400000000D+04  .000000000000D+00
     .240000000000D+01  .000000000000D+00 -.977888703346D-08  .660000000000D+02
     .720600000000D+04  .400000000000D+01
 6 13  8 18  4  0  0.0  .760704278946D-05  .196678229258D-10  .000000000000D+00
     .970000000000D+02 -.124500000000D+03  .467019453235D-08  .212457676522D+01
    -.642985105515D-05  .809570786078D-02  .918656587601D-05  .515368679810D+04
     .144000000000D+05  .372529029846D-08  .220353891255D+01  .109896063805D-06
     .941982031573D+00  .192250000000D+03 -.246610411651D+00 -.812819571483D-08
    -.143220251413D-09  .100000000000D+01  .175400000000D+04  .000000000000D+00
     .340000000000D+01  .000000000000D+00 -.512227416039D-08  .970000000000D+02
     .720600000000D+04  .400000000000D+01
 7 13  8 18  4  0  0.0  .248576980084D-03  .420641299570D-11  .000000000000D+00
     .150000000000D+02  .112781250000D+03  .405516891406D-08 -.123590999892D+01
     .580027699471D-05  .680957327131D-02  .678375363350D-05  .515367734909D+04
     .144000000000D+05  .484287738800D-07  .194642343246D+00 -.121071934700D-06
     .975385657848D+00  .257812500000D+03 -.290433510732D+01 -.794461663946D-08
     .181078971237D-09  .100000000000D+01  .175400000000D+04  .000000000000D+00
     .240000000000D+01  .000000000000D+00 -.107102096081D-07  .150000000000D+02
     .720600000000D+04  .400000000000D+01
 8 13  8 18  4  0  0.0  .800890848041D-05  .227373675443D-12  .000000000000D+00
     .240000000000D+02  .112656250000D+03  .365300930536D-08 -.180651396600D+01
     .571459531784D-05  .133129227906D-01  .577606260777D-05  .515370281601D+04
     .144000000000D+05  .260770320892D-07  .287684151062D+00 -.124797224998D-06
     .998210057444D+00  .288875000000D+03 -.285239249076D+01 -.770924969262D-08
     .344300055765D-09  .100000000000D+01  .175400000000D+04  .000000000000D+00
     .240000000000D+01  .000000000000D+00 -.372529029846D-08  .240000000000D+02
     .720600000000D+04  .400000000000D+01
 9 13  8 18  4  0  0.0  .262056477368D-03  .261479726760D-11  .000000000000D+00
     .530000000000D+02  .112000000000D+03  .396945105786D-08 -.609217297717D-01
     .581890344620D-05  .169730775524D-01  .710785388947D-05  .515372535324D+04
     .144000000000D+05 -.320374965668D-06  .172010235454D+00 -.335276126862D-07
     .983999262445D+00  .258812500000D+03  .171554724018D+01 -.815212528303D-08
     .149649090628D-09  .100000000000D+01  .175400000000D+04  .000000000000D+00
     .240000000000D+01  .000000000000D+00 -.558793544769D-08  .530000000000D+02
     .720600000000D+04  .400000000000D+01
10 13  8 18  4  0  0.0 -.910428352654D-04 -.136424205266D-11  .000000000000D+00
     .135000000000D+03 -.131875000000D+02  .539951062558D-08  .263103630225D+01
    -.808387994766D-06  .126321105054D-01  .561401247978D-05  .515364653397D+04
     .144000000000D+05 -.875443220139D-07 -.190455297762D+01 -.180676579475D-06
     .942781083279D+00  .262343750000D+03  .810161043557D+00 -.825034365993D-08
    -.184650548579D-09  .100000000000D+01  .175400000000D+04  .000000000000D+00
     .340000000000D+01  .000000000000D+00 -.232830643654D-08  .135000000000D+03
     .720600000000D+04  .400000000000D+01
11 13  8 18  4  0  0.0 -.411281827837D-03 -.352429196937D-11  .000000000000D+00
     .310000000000D+02 -.243750000000D+01  .607739600508D-08 -.101814090017D+01
     .158324837685D-06  .143844025442D-01  .104252249002D-04  .515369152832D+04
     .144000000000D+05  .242143869400D-07  .301449616536D+01  .290572643280D-06
     .889708545372D+00  .142593750000D+03  .119766345549D+01 -.882893918933D-08
     .537879547699D-09  .100000000000D+01  .175400000000D+04  .000000000000D+00
     .240000000000D+01  .000000000000D+00 -.116415321827D-07  .310000000000D+02
     .720600000000D+04  .400000000000D+01
12 13  8 18  4  0  0.0  .151146668941D-03  .216004991671D-11  .000000000000D+00
     .690000000000D+02 -.572187500000D+02  .416803075807D-08 -.154480131998D+01
    -.284984707832D-05  .453989568632D-02  .195018947124D-05  .515378492355D+04
     .144000000000D+05 -.391155481339D-07  .125427863093D+01 -.707805156708D-07
     .984660777908D+00  .355000000000D+03  .329435028440D+00 -.825605818368D-08
    -.154649298907D-09  .100000000000D+01  .175400000000D+04  .000000000000D+00
     .240000000000D+01  .000000000000D+00 -.116415321827D-07  .690000000000D+02
     .720600000000D+04  .400000000000D+01
13 13  8 18  4  0  0.0  .889580696821D-04 -.375166564481D-11  .000000000000D+00
     .460000000000D+02  .345312500000D+02  .388801909446D-08  .108457172049D+01
     .160373747349D-05  .506077148020D-02  .113770365715D-04  .515371879959D+04
     .144000000000D+05  .409781932831D-07 -.771370092718D+00 -.838190317154D-07
     .980644173937D+00  .168562500000D+03  .219161051406D+01 -.764674708914D-08
    -.465733685392D-09  .100000000000D+01  .175400000000D+04  .000000000000D+00
     .240000000000D+01  .000000000000D+00 -.107102096081D-07  .460000000000D+02
     .720600000000D+04  .400000000000D+01
14 13  8 18  4  0  0.0  .217716209590D-03 -.682121026330D-12  .000000000000D+00
     .470000000000D+02  .328750000000D+02  .406909806570D-08  .131375635376D+01
     .173412263393D-05  .728847261053D-02  .127628445625D-04  .515378926849D+04
     .144000000000D+05 -.180676579475D-06 -.801193389378D+00 -.111758708954D-07
     .973267263231D+00  .142718750000D+03 -.202604544947D+01 -.780639659632D-08
    -.564666377764D-09  .100000000000D+01  .175400000000D+04  .000000000000D+00
     .240000000000D+01  .000000000000D+00 -.884756445885D-08  .470000000000D+02
     .720600000000D+04  .400000000000D+01
15 13  8 18  4  0  0.0 -.132737215608D-03 -.181898940355D-11  .000000000000D+00
     .880000000000D+02  .275625000000D+02  .494520598768D-08  .798521786438D+00
     .154785811901D-05  .554431870114D-02  .112149864435D-04  .515381692505D+04
     .144000000000D+05  .540167093277D-07 -.903792436617D+00  .186264514923D-08
     .939789284144D+00  .147875000000D+03  .158288634408D+00 -.819426989566D-08
    -.658241704123D-09  .100000000000D+01  .175400000000D+04  .000000000000D+00
     .240000000000D+01  .000000000000D+00 -.977888703346D-08  .880000000000D+02
     .720600000000D+04  .400000000000D+01
16 13  8 18  4  0  0.0 -.248451717198D-03  .682121026330D-12  .000000000000D+00
     .430000000000D+02 -.450000000000D+02  .419517474587D-08  .253873188707D+01
    -.240281224251D-05  .706278870348D-02  .157020986080D-05  .515369254494D+04
     .144000000000D+05 -.186264514923D-08  .127271257638D+01  .372529029846D-07
     .985328769710D+00  .365406250000D+03  .138444210643D+00 -.820819904729D-08
    -.190365072327D-09  .100000000000D+01  .175400000000D+04  .000000000000D+00
     .240000000000D+01  .000000000000D+00 -.977888703346D-08  .430000000000D+02
     .720600000000D+04  .400000000000D+01
17 13  8 18  4  0  0.0 -.123176723719D-04 -.375166564481D-11  .000000000000D+00
     .650000000000D+02 -.103343750000D+03  .411910014848D-08  .157543121261D+01
    -.535137951374D-05  .845112046227D-02  .104159116745D-04  .515367698479D+04
     .144000000000D+05 -.193715095520D-06  .230886533648D+01 -.447034835815D-07
     .966271163267D+00  .179968750000D+03 -.219267904698D+01 -.794533095493D-08
    -.714315468392D-11  .100000000000D+01  .175400000000D+04  .000000000000D+00
     .340000000000D+01  .000000000000D+00 -.102445483208D-07  .650000000000D+02
     .720600000000D+04  .400000000000D+01
